[{"OBJECT_NAME":"STARLINK-4045","OBJECT_ID":"2022-083W","EPOCH":"2026-03-09T13:02:04.025760","MEAN_MOTION":15.08842554,"ECCENTRICITY":0.00015539,"INCLINATION":53.2166,"RA_OF_ASC_NODE":164.7781,"ARG_OF_PERICENTER":102.5872,"MEAN_ANOMALY":257.5294,"EPHEMERIS_TYPE":0,"CLASSIFICATION_TYPE":"U","NORAD_CAT_ID":53152,"ELEMENT_SET_NO":999,"REV_AT_EPOCH":20133,"BSTAR":-5.4076055e-5,"MEAN_MOTION_DOT":-1.149e-5,"MEAN_MOTION_DDOT":0},{"OBJECT_NAME":"SL-3 DEB","OBJECT_ID":"1988-032C","EPOCH":"2026-03-09T20:54:05.348736","MEAN_MOTION":15.06065434,"ECCENTRICITY":0.00240661,"INCLINATION":97.6252,"RA_OF_ASC_NODE":41.5186,"ARG_OF_PERICENTER":162.4496,"MEAN_ANOMALY":255.7854,"EPHEMERIS_TYPE":0,"CLASSIFICATION_TYPE":"U","NORAD_CAT_ID":24893,"ELEMENT_SET_NO":999,"REV_AT_EPOCH":81391,"BSTAR":0.00022425917,"MEAN_MOTION_DOT":3.232e-5,"MEAN_MOTION_DDOT":0}]
